{
    "links": {
        "self": "http://www.neowsapp.com/rest/v1/neo/3771061?api_key=iIulBulltgU6a56xZRHN4H3l9WmuAYTsLGpBGhQ2"
    },
    "id": "3771061",
    "neo_reference_id": "3771061",
    "name": "(2017 EF4)",
    "designation": "2017 EF4",
    "nasa_jpl_url": "http://ssd.jpl.nasa.gov/sbdb.cgi?sstr=3771061",
    "absolute_magnitude_h": 26.2,
    "estimated_diameter": {
        "kilometers": {
            "estimated_diameter_min": 0.0152951935,
            "estimated_diameter_max": 0.0342010925
        },
        "meters": {
            "estimated_diameter_min": 15.2951935344,
            "estimated_diameter_max": 34.201092472
        },
        "miles": {
            "estimated_diameter_min": 0.0095039897,
            "estimated_diameter_max": 0.021251567
        },
        "feet": {
            "estimated_diameter_min": 50.1810827555,
            "estimated_diameter_max": 112.2083122258
        }
    },
    "is_potentially_hazardous_asteroid": false,
    "close_approach_data": [
        {
            "close_approach_date": "1959-01-22",
            "close_approach_date_full": "1959-Jan-22 07:34",
            "epoch_date_close_approach": -345313560000,
            "relative_velocity": {
                "kilometers_per_second": "16.104116113",
                "kilometers_per_hour": "57974.8180068943",
                "miles_per_hour": "36023.2973332283"
            },
            "miss_distance": {
                "astronomical": "0.3356732151",
                "lunar": "130.5768806739",
                "kilometers": "50215997.995011837",
                "miles": "31202774.2622318706"
            },
            "orbiting_body": "Earth"
        },
        {
            "close_approach_date": "2017-03-06",
            "close_approach_date_full": "2017-Mar-06 22:33",
            "epoch_date_close_approach": 1488839580000,
            "relative_velocity": {
                "kilometers_per_second": "7.9715330374",
                "kilometers_per_hour": "28697.5189346062",
                "miles_per_hour": "17831.5222513391"
            },
            "miss_distance": {
                "astronomical": "0.0191566081",
                "lunar": "7.4519205509",
                "kilometers": "2865787.768184747",
                "miles": "1780717.9461616286"
            },
            "orbiting_body": "Earth"
        },
        {
            "close_approach_date": "2051-01-24",
            "close_approach_date_full": "2051-Jan-24 17:10",
            "epoch_date_close_approach": 2558193000000,
            "relative_velocity": {
                "kilometers_per_second": "15.7138677779",
                "kilometers_per_hour": "56569.9240004897",
                "miles_per_hour": "35150.3508324154"
            },
            "miss_distance": {
                "astronomical": "0.3228451576",
                "lunar": "125.5867663064",
                "kilometers": "48296947.916774312",
                "miles": "30010331.8379050256"
            },
            "orbiting_body": "Earth"
        }
    ],
    "orbital_data": {
        "orbit_id": "3",
        "orbit_determination_date": "2017-04-06 08:19:36",
        "first_observation_date": "2017-03-08",
        "last_observation_date": "2017-03-17",
        "data_arc_in_days": 9,
        "observations_used": 30,
        "orbit_uncertainty": "7",
        "minimum_orbit_intersection": ".0158994",
        "jupiter_tisserand_invariant": "3.923",
        "epoch_osculation": "2459000.5",
        "eccentricity": ".4420674196659846",
        "semi_major_axis": "1.805759172356258",
        "inclination": "9.868925416197488",
        "ascending_node_longitude": "163.1569417562504",
        "orbital_period": "886.3151465452659",
        "perihelion_distance": "1.007491874494543",
        "perihelion_argument": "2.285782672876075",
        "aphelion_distance": "2.604026470217973",
        "perihelion_time": "2458705.380309857841",
        "mean_anomaly": "119.8705549208969",
        "mean_motion": ".4061760666092984",
        "equinox": "J2000",
        "orbit_class": {
            "orbit_class_type": "APO",
            "orbit_class_description": "Near-Earth asteroid orbits which cross the Earth’s orbit similar to that of 1862 Apollo",
            "orbit_class_range": "a (semi-major axis) > 1.0 AU; q (perihelion) < 1.017 AU"
        }
    },
    "is_sentry_object": false
}